SL-14 R/B               
1 21423U 91042B   26062.61287917  .00000640  00000+0  78027-4 0  9992
2 21423  82.4911 225.8810 0015601 260.3492  99.5960 14.81822110852173
ERS-1                   
1 21574U 91050A   26062.64986236  .00000411  00000+0  14604-3 0  9997
2 21574  98.7885  80.7325 0031298 218.6202 141.2746 14.39443809814862
ARIANE 40 R/B           
1 21610U 91050F   26062.71518264  .00000399  00000+0  13200-3 0  9994
2 21610  98.2025 115.1756 0004363  94.1843 265.9846 14.42888539818132
INTERCOSMOS 25          
1 21819U 91086A   26062.71372772  .00001650  00000+0  31675-3 0  9993
2 21819  82.6063 313.6198 1487059 129.8064 244.3760 12.11980640495964
SL-8 R/B                
1 21876U 92008B   26062.68757398  .00000007  00000+0 -89890-5 0  9998
2 21876  82.9227 272.2443 0035249 149.6880 277.7695 13.75969819708599
SL-8 R/B                
1 21938U 92020B   26062.73729399  .00000094  00000+0  82038-4 0  9998
2 21938  82.9340 158.1797 0027904 316.1037 152.9758 13.75548671700317
USA 81                  
1 21949U 92023A   26062.72089490  .00000237  00000+0  80409-4 0  9992
2 21949  85.0096 134.8842 0002605  82.2583 277.8905 14.32365688 93934
COSMOS 2219             
1 22219U 92076A   26062.36678682  .00000301  00000+0  18266-3 0  9991
2 22219  71.0618  31.2845 0019333 215.5019 144.4818 14.14089002717482
SL-16 R/B               
1 22220U 92076B   26062.77460637  .00000046  00000+0  46882-4 0  9999
2 22220  70.9999 200.8321 0010607 107.3533 356.6514 14.16859992720996
COSMOS 2221             
1 22236U 92080A   26062.68518736  .00002269  00000+0  19891-3 0  9993
2 22236  82.5018 284.8336 0013509 208.1164 151.9330 14.96174039779891
SL-16 R/B               
1 22285U 92093B   26062.80320972 -.00000143  00000+0 -48818-4 0  9991
2 22285  71.0238  16.6219 0006302 299.9749  60.0748 14.15449511712322
COSMOS 2228             
1 22286U 92094A   26062.77235358  .00003396  00000+0  29107-3 0  9992
2 22286  82.5145 242.9772 0017181 325.7821  34.2293 14.97154579775178
