CCSDS_OMM_VERS = 2.0
CREATION_DATE  = 
ORIGINATOR     = 

OBJECT_NAME    = SL-14 R/B
OBJECT_ID      = 1991-042B
CENTER_NAME    = EARTH
REF_FRAME      = TEME
TIME_SYSTEM    = UTC
MEAN_ELEMENT_THEORY = SGP/SGP4

EPOCH          = 2026-03-03T14:42:32.760288
MEAN_MOTION    = 14.81822110
ECCENTRICITY   = .0015601
INCLINATION    = 82.4911
RA_OF_ASC_NODE = 225.8810
ARG_OF_PERICENTER = 260.3492
MEAN_ANOMALY   = 99.5960

EPHEMERIS_TYPE = 0
CLASSIFICATION_TYPE = U
NORAD_CAT_ID   = 21423
ELEMENT_SET_NO = 999
REV_AT_EPOCH   = 85217
BSTAR          = .78027E-4
MEAN_MOTION_DOT = .64E-5
MEAN_MOTION_DDOT = 0

CCSDS_OMM_VERS = 2.0
CREATION_DATE  = 
ORIGINATOR     = 

OBJECT_NAME    = ERS-1
OBJECT_ID      = 1991-050A
CENTER_NAME    = EARTH
REF_FRAME      = TEME
TIME_SYSTEM    = UTC
MEAN_ELEMENT_THEORY = SGP/SGP4

EPOCH          = 2026-03-03T15:35:48.107904
MEAN_MOTION    = 14.39443809
ECCENTRICITY   = .0031298
INCLINATION    = 98.7885
RA_OF_ASC_NODE = 80.7325
ARG_OF_PERICENTER = 218.6202
MEAN_ANOMALY   = 141.2746

EPHEMERIS_TYPE = 0
CLASSIFICATION_TYPE = U
NORAD_CAT_ID   = 21574
ELEMENT_SET_NO = 999
REV_AT_EPOCH   = 81486
BSTAR          = .14604E-3
MEAN_MOTION_DOT = .411E-5
MEAN_MOTION_DDOT = 0

CCSDS_OMM_VERS = 2.0
CREATION_DATE  = 
ORIGINATOR     = 

OBJECT_NAME    = ARIANE 40 R/B
OBJECT_ID      = 1991-050F
CENTER_NAME    = EARTH
REF_FRAME      = TEME
TIME_SYSTEM    = UTC
MEAN_ELEMENT_THEORY = SGP/SGP4

EPOCH          = 2026-03-03T17:09:51.780096
MEAN_MOTION    = 14.42888539
ECCENTRICITY   = .0004363
INCLINATION    = 98.2025
RA_OF_ASC_NODE = 115.1756
ARG_OF_PERICENTER = 94.1843
MEAN_ANOMALY   = 265.9846

EPHEMERIS_TYPE = 0
CLASSIFICATION_TYPE = U
NORAD_CAT_ID   = 21610
ELEMENT_SET_NO = 999
REV_AT_EPOCH   = 81813
BSTAR          = .132E-3
MEAN_MOTION_DOT = .399E-5
MEAN_MOTION_DDOT = 0

CCSDS_OMM_VERS = 2.0
CREATION_DATE  = 
ORIGINATOR     = 

OBJECT_NAME    = INTERCOSMOS 25
OBJECT_ID      = 1991-086A
CENTER_NAME    = EARTH
REF_FRAME      = TEME
TIME_SYSTEM    = UTC
MEAN_ELEMENT_THEORY = SGP/SGP4

EPOCH          = 2026-03-03T17:07:46.075008
MEAN_MOTION    = 12.11980640
ECCENTRICITY   = .1487059
INCLINATION    = 82.6063
RA_OF_ASC_NODE = 313.6198
ARG_OF_PERICENTER = 129.8064
MEAN_ANOMALY   = 244.3760

EPHEMERIS_TYPE = 0
CLASSIFICATION_TYPE = U
NORAD_CAT_ID   = 21819
ELEMENT_SET_NO = 999
REV_AT_EPOCH   = 49596
BSTAR          = .31675E-3
MEAN_MOTION_DOT = .165E-4
MEAN_MOTION_DDOT = 0

CCSDS_OMM_VERS = 2.0
CREATION_DATE  = 
ORIGINATOR     = 

OBJECT_NAME    = SL-8 R/B
OBJECT_ID      = 1992-008B
CENTER_NAME    = EARTH
REF_FRAME      = TEME
TIME_SYSTEM    = UTC
MEAN_ELEMENT_THEORY = SGP/SGP4

EPOCH          = 2026-03-03T16:30:06.391872
MEAN_MOTION    = 13.75969819
ECCENTRICITY   = .0035249
INCLINATION    = 82.9227
RA_OF_ASC_NODE = 272.2443
ARG_OF_PERICENTER = 149.6880
MEAN_ANOMALY   = 277.7695

EPHEMERIS_TYPE = 0
CLASSIFICATION_TYPE = U
NORAD_CAT_ID   = 21876
ELEMENT_SET_NO = 999
REV_AT_EPOCH   = 70859
BSTAR          = -.8989E-5
MEAN_MOTION_DOT = .7E-7
MEAN_MOTION_DDOT = 0

CCSDS_OMM_VERS = 2.0
CREATION_DATE  = 
ORIGINATOR     = 

OBJECT_NAME    = SL-8 R/B
OBJECT_ID      = 1992-020B
CENTER_NAME    = EARTH
REF_FRAME      = TEME
TIME_SYSTEM    = UTC
MEAN_ELEMENT_THEORY = SGP/SGP4

EPOCH          = 2026-03-03T17:41:42.200736
MEAN_MOTION    = 13.75548671
ECCENTRICITY   = .0027904
INCLINATION    = 82.9340
RA_OF_ASC_NODE = 158.1797
ARG_OF_PERICENTER = 316.1037
MEAN_ANOMALY   = 152.9758

EPHEMERIS_TYPE = 0
CLASSIFICATION_TYPE = U
NORAD_CAT_ID   = 21938
ELEMENT_SET_NO = 999
REV_AT_EPOCH   = 70031
BSTAR          = .82038E-4
MEAN_MOTION_DOT = .94E-6
MEAN_MOTION_DDOT = 0

CCSDS_OMM_VERS = 2.0
CREATION_DATE  = 
ORIGINATOR     = 

OBJECT_NAME    = USA 81
OBJECT_ID      = 1992-023A
CENTER_NAME    = EARTH
REF_FRAME      = TEME
TIME_SYSTEM    = UTC
MEAN_ELEMENT_THEORY = SGP/SGP4

EPOCH          = 2026-03-03T17:18:05.319360
MEAN_MOTION    = 14.32365688
ECCENTRICITY   = .0002605
INCLINATION    = 85.0096
RA_OF_ASC_NODE = 134.8842
ARG_OF_PERICENTER = 82.2583
MEAN_ANOMALY   = 277.8905

EPHEMERIS_TYPE = 0
CLASSIFICATION_TYPE = U
NORAD_CAT_ID   = 21949
ELEMENT_SET_NO = 999
REV_AT_EPOCH   = 9393
BSTAR          = .80409E-4
MEAN_MOTION_DOT = .237E-5
MEAN_MOTION_DDOT = 0

CCSDS_OMM_VERS = 2.0
CREATION_DATE  = 
ORIGINATOR     = 

OBJECT_NAME    = COSMOS 2219
OBJECT_ID      = 1992-076A
CENTER_NAME    = EARTH
REF_FRAME      = TEME
TIME_SYSTEM    = UTC
MEAN_ELEMENT_THEORY = SGP/SGP4

EPOCH          = 2026-03-03T08:48:10.381248
MEAN_MOTION    = 14.14089002
ECCENTRICITY   = .00193338
INCLINATION    = 71.0618
RA_OF_ASC_NODE = 31.2845
ARG_OF_PERICENTER = 215.5019
MEAN_ANOMALY   = 144.4818

EPHEMERIS_TYPE = 0
CLASSIFICATION_TYPE = U
NORAD_CAT_ID   = 22219
ELEMENT_SET_NO = 999
REV_AT_EPOCH   = 71748
BSTAR          = .18266337E-3
MEAN_MOTION_DOT = .301E-5
MEAN_MOTION_DDOT = 0

CCSDS_OMM_VERS = 2.0
CREATION_DATE  = 
ORIGINATOR     = 

OBJECT_NAME    = SL-16 R/B
OBJECT_ID      = 1992-076B
CENTER_NAME    = EARTH
REF_FRAME      = TEME
TIME_SYSTEM    = UTC
MEAN_ELEMENT_THEORY = SGP/SGP4

EPOCH          = 2026-03-03T18:35:25.990368
MEAN_MOTION    = 14.16859992
ECCENTRICITY   = .0010607
INCLINATION    = 70.9999
RA_OF_ASC_NODE = 200.8321
ARG_OF_PERICENTER = 107.3533
MEAN_ANOMALY   = 356.6514

EPHEMERIS_TYPE = 0
CLASSIFICATION_TYPE = U
NORAD_CAT_ID   = 22220
ELEMENT_SET_NO = 999
REV_AT_EPOCH   = 72099
BSTAR          = .46882E-4
MEAN_MOTION_DOT = .46E-6
MEAN_MOTION_DDOT = 0

CCSDS_OMM_VERS = 2.0
CREATION_DATE  = 
ORIGINATOR     = 

OBJECT_NAME    = COSMOS 2221
OBJECT_ID      = 1992-080A
CENTER_NAME    = EARTH
REF_FRAME      = TEME
TIME_SYSTEM    = UTC
MEAN_ELEMENT_THEORY = SGP/SGP4

EPOCH          = 2026-03-03T16:26:40.187904
MEAN_MOTION    = 14.96174039
ECCENTRICITY   = .0013509
INCLINATION    = 82.5018
RA_OF_ASC_NODE = 284.8336
ARG_OF_PERICENTER = 208.1164
MEAN_ANOMALY   = 151.9330

EPHEMERIS_TYPE = 0
CLASSIFICATION_TYPE = U
NORAD_CAT_ID   = 22236
ELEMENT_SET_NO = 999
REV_AT_EPOCH   = 77989
BSTAR          = .19891E-3
MEAN_MOTION_DOT = .2269E-4
MEAN_MOTION_DDOT = 0

CCSDS_OMM_VERS = 2.0
CREATION_DATE  = 
ORIGINATOR     = 

OBJECT_NAME    = SL-16 R/B
OBJECT_ID      = 1992-093B
CENTER_NAME    = EARTH
REF_FRAME      = TEME
TIME_SYSTEM    = UTC
MEAN_ELEMENT_THEORY = SGP/SGP4

EPOCH          = 2026-03-03T19:16:37.319808
MEAN_MOTION    = 14.15449511
ECCENTRICITY   = .0006302
INCLINATION    = 71.0238
RA_OF_ASC_NODE = 16.6219
ARG_OF_PERICENTER = 299.9749
MEAN_ANOMALY   = 60.0748

EPHEMERIS_TYPE = 0
CLASSIFICATION_TYPE = U
NORAD_CAT_ID   = 22285
ELEMENT_SET_NO = 999
REV_AT_EPOCH   = 71232
BSTAR          = -.48818E-4
MEAN_MOTION_DOT = -.143E-5
MEAN_MOTION_DDOT = 0

CCSDS_OMM_VERS = 2.0
CREATION_DATE  = 
ORIGINATOR     = 

OBJECT_NAME    = COSMOS 2228
OBJECT_ID      = 1992-094A
CENTER_NAME    = EARTH
REF_FRAME      = TEME
TIME_SYSTEM    = UTC
MEAN_ELEMENT_THEORY = SGP/SGP4

EPOCH          = 2026-03-03T18:32:11.349312
MEAN_MOTION    = 14.97154579
ECCENTRICITY   = .0017181
INCLINATION    = 82.5145
RA_OF_ASC_NODE = 242.9772
ARG_OF_PERICENTER = 325.7821
MEAN_ANOMALY   = 34.2293

EPHEMERIS_TYPE = 0
CLASSIFICATION_TYPE = U
NORAD_CAT_ID   = 22286
ELEMENT_SET_NO = 999
REV_AT_EPOCH   = 77517
BSTAR          = .29107E-3
MEAN_MOTION_DOT = .3396E-4
MEAN_MOTION_DDOT = 0

